IXPE                    
1 49954U 21121A   24106.58334491  .00009060  00000+0  69174-3 0  9992
2 49954   0.2296 137.3131 0009316  73.4862 233.3710 14.97253795  3497
